#aV2013  9 27  0  0  0.00000000     288 DD+AD WGS84 FIT  NGA
## 1759 432000.00000000   300.00000000 56562 0.0000000000000
+   31     1  2  3  4  5  6  7  8  9 10 11 12 13 14 15 16 17
+         18 19 20 21 22 23 24 25 26 27 28 29 31 32  0  0  0
+          0  0  0  0  0  0  0  0  0  0  0  0  0  0  0  0  0
+          0  0  0  0  0  0  0  0  0  0  0  0  0  0  0  0  0
+          0  0  0  0  0  0  0  0  0  0  0  0  0  0  0  0  0
++         2  2  2  2  2  2  2  2  2  2  2  2  2  2  2  2  2
++         2  2  2  2  2  2  2  2  2  2  2  2  2  2  2  0  0
++         0  0  0  0  0  0  0  0  0  0  0  0  0  0  0  0  0
++         0  0  0  0  0  0  0  0  0  0  0  0  0  0  0  0  0
++         0  0  0  0  0  0  0  0  0  0  0  0  0  0  0  0  0
%c cc cc ccc ccc cccc cccc cccc cccc ccccc ccccc ccccc ccccc
%c cc cc ccc ccc cccc cccc cccc cccc ccccc ccccc ccccc ccccc
%f  0.0000000  0.000000000  0.00000000000  0.000000000000000
%f  0.0000000  0.000000000  0.00000000000  0.000000000000000
%i    0    0    0    0      0      0      0      0         0
%i    0    0    0    0      0      0      0      0         0
/*      NGA, ST. LOUIS,MO.                                  
/*   EPHEMERIS COMPUTED FROM  1 DAYS OF DATA
/*   EPOCHA SMOOTHER  
/* CCCCCCCCCCCCCCCCCCCCCCCCCCCCCCCCCCCCCCCCCCCCCCCCCCCCCCCCC
*  2013  9 27 19 25  0.00000000                                                 
P  1  22711.309526  13089.080350   4595.505669     79.268160                    
V  1   3064.719548   5661.817567 -30968.556096      0.039331                    
P  2  -8498.665040 -20154.889853  15636.233052    453.311296                    
V  2  16875.093830   9591.750094  21352.226417      0.017644                    
P  3   5145.265877  15447.408905 -21505.593923    265.180002                    
V  3 -22602.751403  13230.748120   4390.322245      0.051640                    
P  4   5265.045957 -15126.949292  20854.911475      1.292821                    
V  4  22412.397417  15607.758910   5845.256768      0.005551                    
P  5  -2720.121794 -25160.602583  -7831.468939   -399.450245                    
V  5   4247.392057  -9535.180737  29418.567984      0.002176                    
P  6  -2619.842701  17412.483238 -19715.263698     74.950512                    
V  6 -23289.730701  10104.202547  12362.052719      0.187230                    
P  7  20410.413583   1300.556029 -17061.319569    263.341606                    
V  7  16202.269286  14374.826456  20092.038413      0.042216                    
P  8  13024.144853  -7157.251661 -21947.780639      8.713139                    
V  8  20317.544644  19281.467459   5144.749088      0.002416                    
P  9  12466.630068  -9094.408335 -22165.727516    271.514695                    
V  9  21308.427681  16244.188595   5326.907814      0.027377                    
P 10   9178.400786 -23169.442085   8241.326909    -96.044488                    
V 10   2008.676560  11405.660616  29180.982618     -0.013491                    
P 11  22395.401643  13307.860382  -6271.288977   -423.597575                    
V 11  -8513.457477   1776.640999 -28543.944570     -0.034734                    
P 12 -11434.952548 -13126.978911  20075.699292    158.826078                    
V 12   4647.827068 -25050.586619 -13500.736085      0.022125                    
P 13  25764.620663  -4662.321144   4770.526513     75.695945                    
V 13  -5295.209221   3802.893461  31318.315232     -0.038115                    
P 14 -17855.883678  15194.766028  12546.614556    214.754727                    
V 14 -15444.207353   3140.173728 -26381.210766     -0.009188                    
P 15 -17172.746556  -7344.700846 -19006.963452   -139.193430                    
V 15  21188.282624 -11502.032461 -14456.188848     -0.018760                    
P 16   1140.674239  25072.779162  -8178.141212   -245.791048                    
V 16  -3878.780578   9890.935892  30219.255982      0.008406                    
P 17  18646.011699 -15288.569177  11086.206839    -25.575912                    
V 17  13769.903939  -2661.222933 -27616.693344     -0.037195                    
P 18 -15340.575155   9841.194916 -18783.690877    276.360597                    
V 18    903.721445 -25043.926223 -13897.057755      0.020224                    
P 19  13486.621392  10619.532236 -20493.928921   -407.309313                    
V 19 -24176.638009   8573.363342 -11114.203185     -0.027733                    
P 20  14899.999918   7555.309507  20483.940571    125.388696                    
V 20  -2614.370450  26416.054453  -7698.700494      0.026548                    
P 21 -19311.574651   2040.974604 -17744.616465   -320.812365                    
V 21 -17824.475929 -15634.414327  16543.980471     -0.018888                    
P 22 -11118.179006  21098.967139 -11334.003366    186.922314                    
V 22  -1722.455488 -15139.266062 -26178.103343      0.020123                    
P 23  22504.838029   1732.939624  14406.764358     44.306676                    
V 23 -15869.202145   8709.450782  23491.483441     -0.034566                    
P 24 -21667.461481 -15397.592188    617.715964    -14.514763                    
V 24   1052.955849  -2765.084269 -31656.750712     -0.006474                    
P 25 -15071.159912   2061.059521  21704.981907    151.807319                    
V 25   2755.988002 -27534.502907   4611.476427      0.039491                    
P 26  -2577.187740 -15023.338963 -22376.038451    210.907051                    
V 26  25660.059184  -7894.441626   2727.065294      0.186943                    
P 27    758.651132  15878.556701 -21287.192553    -41.544530                    
V 27 -25031.769022  10152.374286   6696.943483     -0.043957                    
P 28  12569.842758 -18408.419101 -13719.289065    296.051254                    
V 28  -1396.290878  18496.648243 -25201.890982      0.030458                    
P 29 -25015.636829   3132.695142   8331.247098    474.193342                    
V 29   9022.387712  -5960.123713  29505.508393      0.030914                    
P 31  -3591.177157  15470.831235  21407.784490    326.766373                    
V 31 -21415.753560 -16102.222148   8384.495447      0.007643                    
P 32   8872.001151  18410.270379  17347.471408   -545.392388                    
V 32  -5953.208906  20878.285502 -18699.977607      0.031559                    
EOF
